{
  "type": "FeatureCollection",
  "features": [
    {
      "type": "Feature",
      "properties": {
        "norad_id": 41877,
        "name": "RESOURCESAT-2A",
        "group": "resource",
        "lat": -6.966076772545654,
        "lon": 57.423269381124214,
        "alt_km": 823.8053976304718,
        "timestamp": "2025-12-12T11:38:31.073716+00:00",
        "meta_object_name": "RESOURCESAT-2A",
        "meta_object_id": "2016-074A",
        "meta_epoch": "2025-12-12T04:55:05.782656",
        "meta_mean_motion": 14.21598644,
        "meta_eccentricity": 0.0001134,
        "meta_inclination": 98.7752,
        "meta_ra_of_asc_node": 56.0634,
        "meta_arg_of_pericenter": 258.4315,
        "meta_mean_anomaly": 101.6735,
        "meta_ephemeris_type": 0,
        "meta_classification_type": "U",
        "meta_norad_cat_id": 41877,
        "meta_element_set_no": 999,
        "meta_rev_at_epoch": 46773,
        "meta_bstar": 9.0584e-05,
        "meta_mean_motion_dot": 1.54e-06,
        "meta_mean_motion_ddot": 0,
        "tle_line1": "1 41877U 16074A   25346.20492804  .00000154  00000+0  90584-4 0  9993",
        "tle_line2": "2 41877  98.7752  56.0634 0001134 258.4315 101.6735 14.21598644467732"
      },
      "geometry": {
        "type": "Point",
        "coordinates": [
          57.423269381124214,
          -6.966076772545654
        ]
      }
    },
    {
      "type": "Feature",
      "properties": {
        "norad_id": 41948,
        "name": "CARTOSAT-2D",
        "group": "resource",
        "lat": -82.55561945530512,
        "lon": 133.42507232027592,
        "alt_km": 516.3311769985248,
        "timestamp": "2025-12-12T11:38:31.073726+00:00",
        "meta_object_name": "CARTOSAT-2D",
        "meta_object_id": "2017-008A",
        "meta_epoch": "2025-12-12T04:08:02.482080",
        "meta_mean_motion": 15.19255024,
        "meta_eccentricity": 0.0004656,
        "meta_inclination": 97.4389,
        "meta_ra_of_asc_node": 43.6776,
        "meta_arg_of_pericenter": 165.006,
        "meta_mean_anomaly": 195.1314,
        "meta_ephemeris_type": 0,
        "meta_classification_type": "U",
        "meta_norad_cat_id": 41948,
        "meta_element_set_no": 999,
        "meta_rev_at_epoch": 48918,
        "meta_bstar": 0.00052487,
        "meta_mean_motion_dot": 0.00011007,
        "meta_mean_motion_ddot": 0,
        "tle_line1": "1 41948U 17008A   25346.17225095  .00011007  00000+0  52487-3 0  9990",
        "tle_line2": "2 41948  97.4389  43.6776 0004656 165.0060 195.1314 15.19255024489188"
      },
      "geometry": {
        "type": "Point",
        "coordinates": [
          133.42507232027592,
          -82.55561945530512
        ]
      }
    },
    {
      "type": "Feature",
      "properties": {
        "norad_id": 42063,
        "name": "SENTINEL-2B",
        "group": "resource",
        "lat": -46.21629409499706,
        "lon": 67.98764396905781,
        "alt_km": 796.363097397837,
        "timestamp": "2025-12-12T11:38:31.073736+00:00",
        "meta_object_name": "SENTINEL-2B",
        "meta_object_id": "2017-013A",
        "meta_epoch": "2025-12-12T05:08:50.888832",
        "meta_mean_motion": 14.30815697,
        "meta_eccentricity": 0.0001144,
        "meta_inclination": 98.5711,
        "meta_ra_of_asc_node": 58.6672,
        "meta_arg_of_pericenter": 93.1144,
        "meta_mean_anomaly": 267.017,
        "meta_ephemeris_type": 0,
        "meta_classification_type": "U",
        "meta_norad_cat_id": 42063,
        "meta_element_set_no": 999,
        "meta_rev_at_epoch": 45790,
        "meta_bstar": 0.00010506,
        "meta_mean_motion_dot": 2.32e-06,
        "meta_mean_motion_ddot": 0,
        "tle_line1": "1 42063U 17013A   25346.21447788  .00000232  00000+0  10506-3 0  9999",
        "tle_line2": "2 42063  98.5711  58.6672 0001144  93.1144 267.0170 14.30815697457906"
      },
      "geometry": {
        "type": "Point",
        "coordinates": [
          67.98764396905781,
          -46.21629409499706
        ]
      }
    },
    {
      "type": "Feature",
      "properties": {
        "norad_id": 42767,
        "name": "CARTOSAT-2E",
        "group": "resource",
        "lat": -0.9970414362311463,
        "lon": -136.05542386191195,
        "alt_km": 510.7748609290784,
        "timestamp": "2025-12-12T11:38:31.073746+00:00",
        "meta_object_name": "CARTOSAT-2E",
        "meta_object_id": "2017-036C",
        "meta_epoch": "2025-12-12T04:31:29.621856",
        "meta_mean_motion": 15.1919139,
        "meta_eccentricity": 0.0001969,
        "meta_inclination": 97.4551,
        "meta_ra_of_asc_node": 43.7825,
        "meta_arg_of_pericenter": 240.4077,
        "meta_mean_anomaly": 119.6961,
        "meta_ephemeris_type": 0,
        "meta_classification_type": "U",
        "meta_norad_cat_id": 42767,
        "meta_element_set_no": 999,
        "meta_rev_at_epoch": 46975,
        "meta_bstar": 0.00043027,
        "meta_mean_motion_dot": 8.99e-05,
        "meta_mean_motion_ddot": 0,
        "tle_line1": "1 42767U 17036C   25346.18853729  .00008990  00000+0  43027-3 0  9990",
        "tle_line2": "2 42767  97.4551  43.7825 0001969 240.4077 119.6961 15.19191390469750"
      },
      "geometry": {
        "type": "Point",
        "coordinates": [
          -136.05542386191195,
          -0.9970414362311463
        ]
      }
    },
    {
      "type": "Feature",
      "properties": {
        "norad_id": 42920,
        "name": "FORMOSAT-5",
        "group": "resource",
        "lat": -62.09562131562464,
        "lon": 76.70055505652418,
        "alt_km": 722.4988824743277,
        "timestamp": "2025-12-12T11:38:31.073756+00:00",
        "meta_object_name": "FORMOSAT-5",
        "meta_object_id": "2017-049A",
        "meta_epoch": "2025-12-12T03:39:27.220896",
        "meta_mean_motion": 14.51004964,
        "meta_eccentricity": 0.0009907,
        "meta_inclination": 98.2453,
        "meta_ra_of_asc_node": 60.4831,
        "meta_arg_of_pericenter": 297.529,
        "meta_mean_anomaly": 62.4897,
        "meta_ephemeris_type": 0,
        "meta_classification_type": "U",
        "meta_norad_cat_id": 42920,
        "meta_element_set_no": 999,
        "meta_rev_at_epoch": 43955,
        "meta_bstar": 0.00011245,
        "meta_mean_motion_dot": 4.01e-06,
        "meta_mean_motion_ddot": 0,
        "tle_line1": "1 42920U 17049A   25346.15239839  .00000401  00000+0  11245-3 0  9998",
        "tle_line2": "2 42920  98.2453  60.4831 0009907 297.5290  62.4897 14.51004964439557"
      },
      "geometry": {
        "type": "Point",
        "coordinates": [
          76.70055505652418,
          -62.09562131562464
        ]
      }
    },
    {
      "type": "Feature",
      "properties": {
        "norad_id": 42969,
        "name": "SENTINEL-5P",
        "group": "resource",
        "lat": 0.9959616790960211,
        "lon": -75.08258277462693,
        "alt_km": 829.712835104754,
        "timestamp": "2025-12-12T11:38:31.073767+00:00",
        "meta_object_name": "SENTINEL-5P",
        "meta_object_id": "2017-064A",
        "meta_epoch": "2025-12-11T20:24:44.038944",
        "meta_mean_motion": 14.1951721,
        "meta_eccentricity": 9.48e-05,
        "meta_inclination": 98.7784,
        "meta_ra_of_asc_node": 284.4425,
        "meta_arg_of_pericenter": 88.5095,
        "meta_mean_anomaly": 271.6189,
        "meta_ephemeris_type": 0,
        "meta_classification_type": "U",
        "meta_norad_cat_id": 42969,
        "meta_element_set_no": 999,
        "meta_rev_at_epoch": 42298,
        "meta_bstar": 9.6727e-05,
        "meta_mean_motion_dot": 1.6e-06,
        "meta_mean_motion_ddot": 0,
        "tle_line1": "1 42969U 17064A   25345.85050971  .00000160  00000+0  96727-4 0  9993",
        "tle_line2": "2 42969  98.7784 284.4425 0000948  88.5095 271.6189 14.19517210422980"
      },
      "geometry": {
        "type": "Point",
        "coordinates": [
          -75.08258277462693,
          0.9959616790960211
        ]
      }
    },
    {
      "type": "Feature",
      "properties": {
        "norad_id": 42987,
        "name": "SKYSAT-C11",
        "group": "resource",
        "lat": -2.457162449144753,
        "lon": 124.28979937034165,
        "alt_km": 427.880891350148,
        "timestamp": "2025-12-12T11:38:31.073777+00:00",
        "meta_object_name": "SKYSAT-C11",
        "meta_object_id": "2017-068A",
        "meta_epoch": "2025-12-11T23:14:12.035904",
        "meta_mean_motion": 15.47394077,
        "meta_eccentricity": 9.99e-05,
        "meta_inclination": 97.414,
        "meta_ra_of_asc_node": 123.4401,
        "meta_arg_of_pericenter": 103.6919,
        "meta_mean_anomaly": 256.4442,
        "meta_ephemeris_type": 0,
        "meta_classification_type": "U",
        "meta_norad_cat_id": 42987,
        "meta_element_set_no": 999,
        "meta_rev_at_epoch": 45419,
        "meta_bstar": 0.00052426,
        "meta_mean_motion_dot": 0.0002679,
        "meta_mean_motion_ddot": 0,
        "tle_line1": "1 42987U 17068A   25345.96819486  .00026790  00000+0  52426-3 0  9997",
        "tle_line2": "2 42987  97.4140 123.4401 0000999 103.6919 256.4442 15.47394077454195"
      },
      "geometry": {
        "type": "Point",
        "coordinates": [
          124.28979937034165,
          -2.457162449144753
        ]
      }
    }
  ]
}